APRIZESAT 2             
1 28366U 04025A   26194.44690127  .00000105  00000+0  45667-4 0  9998
2 28366  98.1039 358.9437 0105825 170.1481 190.1816 14.38047170155416
SAUDICOMSAT 1           
1 28369U 04025D   26194.00209918  .00000164  00000+0  48828-4 0  9994
2 28369  98.5776 204.8308 0031079 305.8417  53.9894 14.55492672167888
SAUDICOMSAT 2           
1 28370U 04025E   26194.48557336  .00000098  00000+0  37362-4 0  9995
2 28370  98.6642 207.4753 0055537 178.8540 181.2790 14.49993879163914
APRIZESAT 1             
1 28372U 04025G   26194.27791375  .00000132  00000+0  44427-4 0  9996
2 28372  98.6309 205.7138 0045802  76.3394 284.2895 14.51791387165697
NANOSAT-1               
1 28493U 04049B   26194.33027304  .00000509  00000+0  74197-4 0  9992
2 28493  98.2306 331.6357 0003649 190.0558 170.0580 14.80208799159312
SAUDICOMSAT 7           
1 31119U 07012C   26194.45649845  .00000250  00000+0  53989-4 0  9996
2 31119  98.3797 169.1283 0056917 113.6174 247.1019 14.66135597 26280
SAUDICOMSAT 6           
1 31121U 07012E   26193.88197955  .00000185  00000+0  45549-4 0  9995
2 31121  98.4115 161.8794 0070449 246.4382 112.9408 14.62583472 23942
SAUDICOMSAT 5           
1 31124U 07012H   26194.46128494  .00000331  00000+0  65732-4 0  9994
2 31124  98.3509 169.8749 0048343  44.1762 316.3287 14.68190867 27455
SAUDICOMSAT 3           
1 31125U 07012J   26194.44422051  .00000396  00000+0  73082-4 0  9997
2 31125  98.3163 170.4040 0038376 330.8654  29.0410 14.70748213 28683
SAUDICOMSAT 4           
1 31127U 07012L   26194.39046134  .00000205  00000+0  47414-4 0  9996
2 31127  98.4002 167.4979 0063441 175.3531 184.8274 14.64534515 25127
APRIZESAT 4             
1 35684U 09041D   26193.74598681  .00000345  00000+0  48023-4 0  9991
2 35684  98.1404 269.5752 0042095 237.6607 122.0528 14.83911924915154
APRIZESAT 3             
1 35686U 09041F   26194.38011458  .00001048  00000+0  95315-4 0  9993
2 35686  98.2095 348.8641 0060907 341.9315  17.9739 14.96307525920295
S-NET D                 
1 43186U 18014G   26194.32225034  .00002633  00000+0  13703-3 0  9999
2 43186  97.5339  98.9509 0006359 293.0677  66.9885 15.16907899462725
S-NET B                 
1 43187U 18014H   26194.13631689  .00002849  00000+0  14811-3 0  9996
2 43187  97.5344  98.7534 0006929 287.5249  72.5227 15.16876626462696
S-NET A                 
1 43188U 18014J   26194.32098338  .00002639  00000+0  13730-3 0  9992
2 43188  97.5355  99.1508 0006834 287.9427  72.1061 15.16916349462725
S-NET C                 
1 43189U 18014K   26194.40419973  .00002836  00000+0  14746-3 0  9991
2 43189  97.5372  99.3123 0008143 277.9659  82.0650 15.16869395461283
SALSAT                  
1 46495U 20068K   26194.50246523  .00004373  00000+0  15263-3 0  9999
2 46495  97.8854 199.1769 0008994 199.0887 161.0016 15.30157505319386
OOV-CUBE (TUBSAT-30)    
1 60240U 24128F   26194.40407737  .00001077  00000+0  94341-4 0  9992
2 60240  61.9937 134.1487 0041356 139.6220 220.7954 15.02869569110056
LPNTSAT-001 (IOD-1)     
1 68408U 26065A   26193.97232545  .00001457  00000+0  73423-4 0  9992
2 68408  97.3989  73.9344 0014606 275.0724  84.8843 15.18662692 16173
CHUANG XIN 26 (CX-26)   
1 69972U 26158A   26194.51442212 -.00000212  00000+0 -21871-4 0  9997
2 69972  49.9860 287.5119 0004887 294.2352  65.8050 14.25122238   462
